{
    "links": {
        "self": "http://www.neowsapp.com/rest/v1/neo/3690055?api_key=iIulBulltgU6a56xZRHN4H3l9WmuAYTsLGpBGhQ2"
    },
    "id": "3690055",
    "neo_reference_id": "3690055",
    "name": "(2014 ST143)",
    "designation": "2014 ST143",
    "nasa_jpl_url": "http://ssd.jpl.nasa.gov/sbdb.cgi?sstr=3690055",
    "absolute_magnitude_h": 23.8,
    "estimated_diameter": {
        "kilometers": {
            "estimated_diameter_min": 0.046190746,
            "estimated_diameter_max": 0.1032856481
        },
        "meters": {
            "estimated_diameter_min": 46.1907460282,
            "estimated_diameter_max": 103.2856480504
        },
        "miles": {
            "estimated_diameter_min": 0.0287015901,
            "estimated_diameter_max": 0.0641787064
        },
        "feet": {
            "estimated_diameter_min": 151.544447199,
            "estimated_diameter_max": 338.8636855496
        }
    },
    "is_potentially_hazardous_asteroid": false,
    "close_approach_data": [
        {
            "close_approach_date": "2014-10-28",
            "close_approach_date_full": "2014-Oct-28 21:36",
            "epoch_date_close_approach": 1414532160000,
            "relative_velocity": {
                "kilometers_per_second": "4.0411805847",
                "kilometers_per_hour": "14548.2501049909",
                "miles_per_hour": "9039.7168499595"
            },
            "miss_distance": {
                "astronomical": "0.2195858819",
                "lunar": "85.4189080591",
                "kilometers": "32849580.214311553",
                "miles": "20411782.6382353114"
            },
            "orbiting_body": "Earth"
        },
        {
            "close_approach_date": "2015-01-23",
            "close_approach_date_full": "2015-Jan-23 12:22",
            "epoch_date_close_approach": 1422015720000,
            "relative_velocity": {
                "kilometers_per_second": "6.3243233593",
                "kilometers_per_hour": "22767.5640933497",
                "miles_per_hour": "14146.8789223372"
            },
            "miss_distance": {
                "astronomical": "0.1299742943",
                "lunar": "50.5600004827",
                "kilometers": "19443877.582033141",
                "miles": "12081865.2859377058"
            },
            "orbiting_body": "Earth"
        }
    ],
    "orbital_data": {
        "orbit_id": "4",
        "orbit_determination_date": "2019-07-17 06:10:10",
        "first_observation_date": "2014-09-20",
        "last_observation_date": "2014-09-23",
        "data_arc_in_days": 3,
        "observations_used": 13,
        "orbit_uncertainty": "9",
        "minimum_orbit_intersection": ".0469805",
        "jupiter_tisserand_invariant": "5.302",
        "epoch_osculation": "2456922.5",
        "eccentricity": ".2622595007790299",
        "semi_major_axis": "1.186156795059527",
        "inclination": "6.701987856190864",
        "ascending_node_longitude": "161.9351526948817",
        "orbital_period": "471.8582780863331",
        "perihelion_distance": ".8750759061415615",
        "perihelion_argument": "321.2543336539376",
        "aphelion_distance": "1.497237683977493",
        "perihelion_time": "2457045.203506205175",
        "mean_anomaly": "266.3844711742433",
        "mean_motion": ".7629409437511934",
        "equinox": "J2000",
        "orbit_class": {
            "orbit_class_type": "APO",
            "orbit_class_description": "Near-Earth asteroid orbits which cross the Earth’s orbit similar to that of 1862 Apollo",
            "orbit_class_range": "a (semi-major axis) > 1.0 AU; q (perihelion) < 1.017 AU"
        }
    },
    "is_sentry_object": false
}